KUIPER-00197            
1 67769U 26030F   26060.48986995  .00026628  00000+0  75670-3 0  9999
2 67769  51.8824 258.6150 0001103  71.9470 288.1637 15.35981779  3839
KUIPER-00198            
1 67770U 26030G   26060.42874365  .00037441  00000+0  10703-2 0  9992
2 67770  51.8798 258.9517 0002533  28.9617 331.1509 15.35620930  3829
KUIPER-00199            
1 67771U 26030H   26060.51135538  .00030472  00000+0  91885-3 0  9993
2 67771  51.8797 258.7482 0010092  37.9570 322.2125 15.33998902  3836
KUIPER-00200            
1 67772U 26030J   26060.41815303  .00041401  00000+0  11446-2 0  9996
2 67772  51.8807 258.8839 0001984 196.6253 163.4669 15.36618169  3821
KUIPER-00203            
1 67773U 26030K   26060.50003471 -.00224604  00000+0 -79798-2 0  9996
2 67773  51.8800 258.8537 0012032  40.1400 224.2341 15.29349892  2393
KUIPER-00205            
1 67774U 26030L   26060.42551178  .00038075  00000+0  10762-2 0  9999
2 67774  51.8800 258.9300 0001974 354.1612   5.9351 15.35967438  3822
KUIPER-00208            
1 67775U 26030M   26060.45560111  .00022872  00000+0  71806-3 0  9995
2 67775  51.8826 259.1291 0014306  38.4565 321.7437 15.32830856  3829
KUIPER-00209            
1 67776U 26030N   26060.50003471  .00063586  00000+0  20553-2 0  9992
2 67776  51.8822 258.9294 0013022  42.2526 194.8608 15.31409943  3221
KUIPER-00213            
1 67777U 26030P   26060.52093848  .00031568  00000+0  99492-3 0  9996
2 67777  51.8800 258.8087 0014142  40.0523 320.1502 15.32528073  3835
KUIPER-00214            
1 67778U 26030Q   26060.42018189  .00035275  00000+0  98480-3 0  9996
2 67778  51.8836 258.9001 0001487 189.6379 170.4579 15.36390867  3820
KUIPER-00215            
1 67779U 26030R   26060.44483366  .00023798  00000+0  71947-3 0  9998
2 67779  51.8829 259.0601 0009690  36.8926 323.2725 15.34058558  3823
KUIPER-00218            
1 67780U 26030S   26060.43711936  .00018652  00000+0  55367-3 0  9997
2 67780  51.8820 259.0085 0005932  29.1147 331.0169 15.34822948  3828
